NORAD_CAT_ID,OBJECT_NAME,OBJECT_TYPE,EPOCH,MEAN_MOTION,ECCENTRICITY,INCLINATION,RA_OF_ASC_NODE,ARG_OF_PERICENTER,MEAN_ANOMALY,BSTAR,MEAN_MOTION_DOT,MEAN_MOTION_DDOT,TLE_LINE0,TLE_LINE1,TLE_LINE2,SEMIMAJOR_AXIS,PERIOD,APOGEE,PERIGEE,DECAYED
53748.0,STARLINK-4669,PAYLOAD,2023-10-28 20:43:45,15.08837003,0.0001375,53.2163,177.6661,101.5681,258.5466,-0.00012324,-2.249e-05,0.0,0 STARLINK-4669,1 53748U 22107BA  23301.86371798 -.00002249  00000-0 -12324-3 0  9991,2 53748  53.2163 177.6661 0001375 101.5681 258.5466 15.08837003 63551,6917.89,95.438,540.706,538.803,0.0
53748.0,STARLINK-4669,PAYLOAD,2023-10-28 22:19:08,15.08840559,0.0001325,53.2162,177.3663,95.231,264.8834,-4.239e-05,-9.62e-06,0.0,0 STARLINK-4669,1 53748U 22107BA  23301.92995630 -.00000962  00000-0 -42390-4 0  9992,2 53748  53.2162 177.3663 0001325  95.2310 264.8834 15.08840559 64349,6917.879,95.438,540.66,538.827,0.0
53748.0,STARLINK-4669,PAYLOAD,2023-10-29 09:26:50,15.08845214,0.0001398,53.2157,175.2867,92.6796,267.4356,5.9732e-05,6.63e-06,0.0,0 STARLINK-4669,1 53748U 22107BA  23302.39363586  .00000663  00000-0  59732-4 0  9997,2 53748  53.2157 175.2867 0001398  92.6796 267.4356 15.08845214 64414,6917.864,95.437,540.697,538.762,0.0
53748.0,STARLINK-4669,PAYLOAD,2023-10-29 22:09:55,15.08849365,0.0001501,53.2166,172.9071,99.1814,260.9348,0.00029566,4.422e-05,0.0,0 STARLINK-4669,1 53748U 22107BA  23302.92355559  .00004422  00000-0  29566-3 0  9995,2 53748  53.2166 172.9071 0001501  99.1814 260.9348 15.08849365 64492,6917.852,95.437,540.755,538.678,0.0
53748.0,STARLINK-4669,PAYLOAD,2023-10-30 01:20:41,15.08853036,0.0001545,53.2166,172.3114,101.4118,258.7048,0.00032646,4.913e-05,0.0,0 STARLINK-4669,1 53748U 22107BA  23303.05603343  .00004913  00000-0  32646-3 0  9995,2 53748  53.2166 172.3114 0001545 101.4118 258.7048 15.08853036 63734,6917.841,95.437,540.774,538.637,0.0
53748.0,STARLINK-4669,PAYLOAD,2023-10-30 18:49:56,15.08841432,0.0001889,53.2164,169.0363,112.8521,247.267,5.9692e-05,6.62e-06,0.0,0 STARLINK-4669,1 53748U 22107BA  23303.78467872  .00000662  00000-0  59692-4 0  9998,2 53748  53.2164 169.0363 0001889 112.8521 247.2670 15.08841432 63849,6917.876,95.437,541.048,538.434,0.0
53748.0,STARLINK-4669,PAYLOAD,2023-10-30 22:00:42,15.08839674,0.0001483,53.2162,168.4478,89.2126,270.9036,0.00011305,1.512e-05,0.0,0 STARLINK-4669,1 53748U 22107BA  23303.91716243  .00001512  00000-0  11305-3 0  9995,2 53748  53.2162 168.4478 0001483  89.2126 270.9036 15.08839674 64648,6917.881,95.438,540.772,538.72,0.0
53748.0,STARLINK-4669,PAYLOAD,2023-10-31 07:33:01,15.08839524,0.0001514,53.2165,166.662,86.1095,274.0071,6.4962e-05,7.46e-06,0.0,0 STARLINK-4669,1 53748U 22107BA  23304.31460188  .00000746  00000-0  64962-4 0  9990,2 53748  53.2165 166.6620 0001514  86.1095 274.0071 15.08839524 64701,6917.882,95.438,540.794,538.699,0.0
53748.0,STARLINK-4669,PAYLOAD,2023-10-31 21:51:29,15.088497,0.00015,53.216,163.9863,87.9008,272.2156,0.0002449,3.613e-05,0.0,0 STARLINK-4669,1 53748U 22107BA  23304.91075786  .00003613  00000-0  24490-3 0  9999,2 53748  53.2160 163.9863 0001500  87.9008 272.2156 15.08849700 64018,6917.851,95.437,540.753,538.678,0.0
53748.0,STARLINK-4669,PAYLOAD,2023-11-01 07:23:48,15.08843078,0.0001428,53.2157,162.2021,87.4691,272.6464,0.00011483,1.54e-05,0.0,0 STARLINK-4669,1 53748U 22107BA  23305.30819792  .00001540  00000-0  11483-3 0  9991,2 53748  53.2157 162.2021 0001428  87.4691 272.6464 15.08843078 64078,6917.871,95.437,540.724,538.748,0.0
53748.0,STARLINK-4669,PAYLOAD,2023-11-01 21:42:16,15.08845055,0.0001294,53.216,159.5257,91.3447,268.7693,0.00015476,2.176e-05,0.0,0 STARLINK-4669,1 53748U 22107BA  23305.90435748  .00002176  00000-0  15476-3 0  9994,2 53748  53.2160 159.5257 0001294  91.3447 268.7693 15.08845055 64949,6917.865,95.437,540.625,538.835,0.0
53748.0,STARLINK-4669,PAYLOAD,2023-11-02 13:36:07,15.0884191,0.0001538,53.2157,156.5524,92.7684,267.3484,7.0321e-05,8.31e-06,0.0,0 STARLINK-4669,1 53748U 22107BA  23306.56675898  .00000831  00000-0  70321-4 0  9996,2 53748  53.2157 156.5524 0001538  92.7684 267.3484 15.08841910 64262,6917.875,95.437,540.804,538.676,0.0
53748.0,STARLINK-4669,PAYLOAD,2023-11-02 21:33:03,15.0884044,0.0001345,53.2159,155.0658,90.7104,269.4042,1.1056e-06,-2.7e-06,0.0,0 STARLINK-4669,1 53748U 22107BA  23306.89796012 -.00000270  00000-0  11056-5 0  9993,2 53748  53.2159 155.0658 0001345  90.7104 269.4042 15.08840440 65099,6917.879,95.438,540.674,538.814,0.0
53748.0,STARLINK-4669,PAYLOAD,2023-11-03 03:54:36,15.08833889,0.0001372,53.2159,153.877,82.5353,277.5795,-9.1683e-05,-1.747e-05,0.0,0 STARLINK-4669,1 53748U 22107BA  23307.16292289 -.00001747  00000-0 -91683-4 0  9995,2 53748  53.2159 153.8770 0001372  82.5353 277.5795 15.08833889 64357,6917.899,95.438,540.713,538.815,0.0
53748.0,STARLINK-4669,PAYLOAD,2023-11-03 13:26:55,15.08837294,0.0001252,53.2166,152.092,94.4293,265.6842,7.54e-05,9.12e-06,0.0,0 STARLINK-4669,1 53748U 22107BA  23307.56036486  .00000912  00000-0  75400-4 0  9994,2 53748  53.2166 152.0920 0001252  94.4293 265.6842 15.08837294 65193,6917.889,95.438,540.62,538.888,0.0
53748.0,STARLINK-4669,PAYLOAD,2023-11-03 19:48:27,15.08843876,0.0001258,53.2158,150.9023,88.8338,271.2798,9.035e-05,1.15e-05,0.0,0 STARLINK-4669,1 53748U 22107BA  23307.82531951  .00001150  00000-0  90350-4 0  9996,2 53748  53.2158 150.9023 0001258  88.8338 271.2798 15.08843876 64452,6917.869,95.437,540.604,538.863,0.0
53748.0,STARLINK-4669,PAYLOAD,2023-11-03 21:23:50,15.0884524,0.0001249,53.216,150.605,87.2214,272.8921,0.00011062,1.473e-05,0.0,0 STARLINK-4669,1 53748U 22107BA  23307.89155894  .00001473  00000-0  11062-3 0  9991,2 53748  53.2160 150.6050 0001249  87.2214 272.8921 15.08845240 65248,6917.864,95.437,540.593,538.865,0.0
53748.0,STARLINK-4669,PAYLOAD,2023-11-04 06:56:09,15.0884129,0.0001239,53.2161,148.8209,86.7784,273.335,8.3468e-05,1.041e-05,0.0,0 STARLINK-4669,1 53748U 22107BA  23308.28900142  .00001041  00000-0  83468-4 0  9990,2 53748  53.2161 148.8209 0001239  86.7784 273.3350 15.08841290 65309,6917.876,95.437,540.599,538.884,0.0
53748.0,STARLINK-4669,PAYLOAD,2023-11-04 19:39:15,15.08838789,0.0001249,53.2161,146.442,87.4905,272.623,0.00012242,1.661e-05,0.0,0 STARLINK-4669,1 53748U 22107BA  23308.81892472  .00001661  00000-0  12242-3 0  9994,2 53748  53.2161 146.4420 0001249  87.4905 272.6230 15.08838789 64602,6917.884,95.438,540.613,538.885,0.0
53748.0,STARLINK-4669,PAYLOAD,2023-11-05 06:46:56,15.08851512,0.0001263,53.2163,144.3605,87.3358,272.7779,0.00025667,3.801e-05,0.0,0 STARLINK-4669,1 53748U 22107BA  23309.28259902  .00003801  00000-0  25667-3 0  9994,2 53748  53.2163 144.3605 0001263  87.3358 272.7779 15.08851512 64678,6917.845,95.437,540.584,538.836,0.0
53748.0,STARLINK-4669,PAYLOAD,2023-11-05 13:08:29,15.08846658,0.0001296,53.2159,143.1714,86.5886,273.5255,0.00021839,3.19e-05,0.0,0 STARLINK-4669,1 53748U 22107BA  23309.54756065  .00003190  00000-0  21839-3 0  9993,2 53748  53.2159 143.1714 0001296  86.5886 273.5255 15.08846658 65498,6917.86,95.437,540.622,538.828,0.0
53748.0,STARLINK-4669,PAYLOAD,2023-11-05 19:30:01,15.08855273,0.0001307,53.2166,141.9818,91.8019,268.3122,0.00038033,5.773e-05,0.0,0 STARLINK-4669,1 53748U 22107BA  23309.81251651  .00005773  00000-0  38033-3 0  9997,2 53748  53.2166 141.9818 0001307  91.8019 268.3122 15.08855273 65530,6917.834,95.437,540.603,538.795,0.0
53748.0,STARLINK-4669,PAYLOAD,2023-11-06 12:59:15,15.08855672,0.0001293,53.2164,138.711,84.5605,275.5535,0.00033331,5.023e-05,0.0,0 STARLINK-4669,1 53748U 22107BA  23310.54115405  .00005023  00000-0  33331-3 0  9999,2 53748  53.2164 138.7110 0001293  84.5605 275.5535 15.08855672 65644,6917.832,95.437,540.592,538.803,0.0
53748.0,STARLINK-4669,PAYLOAD,2023-11-06 19:20:48,15.08852392,0.0001361,53.217,137.5211,87.6662,272.4486,0.00019742,2.856e-05,0.0,0 STARLINK-4669,1 53748U 22107BA  23310.80611267  .00002856  00000-0  19742-3 0  9996,2 53748  53.2170 137.5211 0001361  87.6662 272.4486 15.08852392 64908,6917.843,95.437,540.649,538.766,0.0
53748.0,STARLINK-4669,PAYLOAD,2023-11-07 12:50:03,15.08832151,0.0001546,53.2171,134.25,100.8109,259.3057,-0.00014902,-2.658e-05,0.0,0 STARLINK-4669,1 53748U 22107BA  23311.53475998 -.00002658  00000-0 -14902-3 0  9991,2 53748  53.2171 134.2500 0001546 100.8109 259.3057 15.08832151 65790,6917.904,95.438,540.839,538.7,0.0
53748.0,STARLINK-4669,PAYLOAD,2023-11-07 19:11:36,15.08826711,0.0001411,53.2171,133.0608,91.5426,268.5728,-0.00014868,-2.653e-05,0.0,0 STARLINK-4669,1 53748U 22107BA  23311.79972443 -.00002653  00000-0 -14868-3 0  9992,2 53748  53.2171 133.0608 0001411  91.5426 268.5728 15.08826711 65056,6917.921,95.438,540.762,538.81,0.0
53748.0,STARLINK-4669,PAYLOAD,2023-11-08 12:40:51,15.08835726,0.0001571,53.217,129.7934,98.8047,261.3123,0.00028674,4.278e-05,0.0,0 STARLINK-4669,1 53748U 22107BA  23312.52836970  .00004278  00000-0  28674-3 0  9991,2 53748  53.2170 129.7934 0001571  98.8047 261.3123 15.08835726 65949,6917.893,95.438,540.845,538.672,0.0
53748.0,STARLINK-4669,PAYLOAD,2023-11-08 19:02:23,15.08836335,0.0001313,53.2166,128.6008,89.3836,270.7307,0.00022389,3.277e-05,0.0,0 STARLINK-4669,1 53748U 22107BA  23312.79333030  .00003277  00000-0  22389-3 0  9994,2 53748  53.2166 128.6008 0001313  89.3836 270.7307 15.08836335 65203,6917.892,95.438,540.665,538.848,0.0
53748.0,STARLINK-4669,PAYLOAD,2023-11-09 04:34:42,15.0884072,0.0001297,53.2161,126.816,106.6568,253.4566,0.00031671,4.756e-05,0.0,0 STARLINK-4669,1 53748U 22107BA  23313.19077060  .00004756  00000-0  31671-3 0  9994,2 53748  53.2161 126.8160 0001297 106.6568 253.4566 15.08840720 66044,6917.878,95.438,540.64,538.846,0.0
53748.0,STARLINK-4669,PAYLOAD,2023-11-09 18:53:10,15.08850099,0.0001319,53.2159,124.1426,101.866,258.248,0.0004025,6.125e-05,0.0,0 STARLINK-4669,1 53748U 22107BA  23313.78692789  .00006125  00000-0  40250-3 0  9995,2 53748  53.2159 124.1426 0001319 101.8660 258.2480 15.08850099 66130,6917.85,95.437,540.627,538.802,0.0
